{
    "links": {
        "self": "http://www.neowsapp.com/rest/v1/neo/3836414?api_key=iIulBulltgU6a56xZRHN4H3l9WmuAYTsLGpBGhQ2"
    },
    "id": "3836414",
    "neo_reference_id": "3836414",
    "name": "(2018 WD2)",
    "designation": "2018 WD2",
    "nasa_jpl_url": "http://ssd.jpl.nasa.gov/sbdb.cgi?sstr=3836414",
    "absolute_magnitude_h": 26.2,
    "estimated_diameter": {
        "kilometers": {
            "estimated_diameter_min": 0.0152951935,
            "estimated_diameter_max": 0.0342010925
        },
        "meters": {
            "estimated_diameter_min": 15.2951935344,
            "estimated_diameter_max": 34.201092472
        },
        "miles": {
            "estimated_diameter_min": 0.0095039897,
            "estimated_diameter_max": 0.021251567
        },
        "feet": {
            "estimated_diameter_min": 50.1810827555,
            "estimated_diameter_max": 112.2083122258
        }
    },
    "is_potentially_hazardous_asteroid": false,
    "close_approach_data": [
        {
            "close_approach_date": "2013-02-22",
            "close_approach_date_full": "2013-Feb-22 03:14",
            "epoch_date_close_approach": 1361502840000,
            "relative_velocity": {
                "kilometers_per_second": "22.5398390319",
                "kilometers_per_hour": "81143.420514899",
                "miles_per_hour": "50419.3659304938"
            },
            "miss_distance": {
                "astronomical": "0.4901045004",
                "lunar": "190.6506506556",
                "kilometers": "73318589.337254148",
                "miles": "45558058.8589093224"
            },
            "orbiting_body": "Earth"
        },
        {
            "close_approach_date": "2016-02-03",
            "close_approach_date_full": "2016-Feb-03 00:21",
            "epoch_date_close_approach": 1454458860000,
            "relative_velocity": {
                "kilometers_per_second": "12.9806949591",
                "kilometers_per_hour": "46730.5018526887",
                "miles_per_hour": "29036.5165539665"
            },
            "miss_distance": {
                "astronomical": "0.1816048397",
                "lunar": "70.6442826433",
                "kilometers": "27167697.200811439",
                "miles": "16881224.2478142982"
            },
            "orbiting_body": "Earth"
        },
        {
            "close_approach_date": "2018-12-04",
            "close_approach_date_full": "2018-Dec-04 21:13",
            "epoch_date_close_approach": 1543957980000,
            "relative_velocity": {
                "kilometers_per_second": "7.5935177143",
                "kilometers_per_hour": "27336.6637716091",
                "miles_per_hour": "16985.9397751979"
            },
            "miss_distance": {
                "astronomical": "0.0087911581",
                "lunar": "3.4197605009",
                "kilometers": "1315138.526593247",
                "miles": "817189.1868589286"
            },
            "orbiting_body": "Earth"
        },
        {
            "close_approach_date": "2021-10-23",
            "close_approach_date_full": "2021-Oct-23 12:45",
            "epoch_date_close_approach": 1634993100000,
            "relative_velocity": {
                "kilometers_per_second": "20.4149741715",
                "kilometers_per_hour": "73493.9070173255",
                "miles_per_hour": "45666.255724182"
            },
            "miss_distance": {
                "astronomical": "0.4234612022",
                "lunar": "164.7264076558",
                "kilometers": "63348893.876759314",
                "miles": "39363177.3602299732"
            },
            "orbiting_body": "Earth"
        }
    ],
    "orbital_data": {
        "orbit_id": "6",
        "orbit_determination_date": "2019-01-09 07:06:54",
        "first_observation_date": "2018-11-08",
        "last_observation_date": "2018-12-05",
        "data_arc_in_days": 27,
        "observations_used": 72,
        "orbit_uncertainty": "7",
        "minimum_orbit_intersection": ".00659712",
        "jupiter_tisserand_invariant": "3.611",
        "epoch_osculation": "2459000.5",
        "eccentricity": ".5214477005772652",
        "semi_major_axis": "2.047084524815881",
        "inclination": "2.841315468021248",
        "ascending_node_longitude": "251.0086565067281",
        "orbital_period": "1069.79875876612",
        "perihelion_distance": ".9796370064633362",
        "perihelion_argument": "199.3805413626251",
        "aphelion_distance": "3.114532043168426",
        "perihelion_time": "2458471.434153986220",
        "mean_anomaly": "178.0369466726966",
        "mean_motion": ".3365118879135877",
        "equinox": "J2000",
        "orbit_class": {
            "orbit_class_type": "APO",
            "orbit_class_description": "Near-Earth asteroid orbits which cross the Earth’s orbit similar to that of 1862 Apollo",
            "orbit_class_range": "a (semi-major axis) > 1.0 AU; q (perihelion) < 1.017 AU"
        }
    },
    "is_sentry_object": false
}